{
    "CCSDS_OMM_VERS": "3.0",
    "COMMENT": "GENERATED VIA SPACE-TRACK.ORG API",
    "CREATION_DATE": "2025-05-16T19:15:53",
    "ORIGINATOR": "18 SPCS",
    "OBJECT_NAME": "BEIDOU 3G1",
    "OBJECT_ID": "2018-085A",
    "CENTER_NAME": "EARTH",
    "REF_FRAME": "TEME",
    "TIME_SYSTEM": "UTC",
    "MEAN_ELEMENT_THEORY": "SGP4",
    "EPOCH": "2025-05-15T14:53:52.405152",
    "MEAN_MOTION": "1.00265207",
    "ECCENTRICITY": "0.00049890",
    "INCLINATION": "3.0254",
    "RA_OF_ASC_NODE": "98.8918",
    "ARG_OF_PERICENTER": "11.3655",
    "MEAN_ANOMALY": "126.6744",
    "EPHEMERIS_TYPE": "0",
    "CLASSIFICATION_TYPE": "U",
    "NORAD_CAT_ID": "43683",
    "ELEMENT_SET_NO": "999",
    "REV_AT_EPOCH": "2407",
    "BSTAR": "0.00000000000000",
    "MEAN_MOTION_DOT": "-0.00000265",
    "MEAN_MOTION_DDOT": "0.0000000000000",
    "SEMIMAJOR_AXIS": "42166.576",
    "PERIOD": "1436.191",
    "APOAPSIS": "35809.478",
    "PERIAPSIS": "35767.404",
    "OBJECT_TYPE": "PAYLOAD",
    "RCS_SIZE": "LARGE",
    "COUNTRY_CODE": "PRC",
    "LAUNCH_DATE": "2018-11-01",
    "SITE": "XSC",
    "DECAY_DATE": null,
    "FILE": "4730293",
    "GP_ID": "287705779",
    "TLE_LINE0": "0 BEIDOU 3G1",
    "TLE_LINE1": "1 43683U 18085A   25135.62074543 -.00000265  00000-0  00000-0 0  9997",
    "TLE_LINE2": "2 43683   3.0254  98.8918 0004989  11.3655 126.6744  1.00265207 24070"
}